{
    "links": {
        "self": "http://www.neowsapp.com/rest/v1/neo/3565393?api_key=iIulBulltgU6a56xZRHN4H3l9WmuAYTsLGpBGhQ2"
    },
    "id": "3565393",
    "neo_reference_id": "3565393",
    "name": "(2011 JU10)",
    "designation": "2011 JU10",
    "nasa_jpl_url": "http://ssd.jpl.nasa.gov/sbdb.cgi?sstr=3565393",
    "absolute_magnitude_h": 20.9,
    "estimated_diameter": {
        "kilometers": {
            "estimated_diameter_min": 0.1756123185,
            "estimated_diameter_max": 0.3926810818
        },
        "meters": {
            "estimated_diameter_min": 175.6123184804,
            "estimated_diameter_max": 392.6810818086
        },
        "miles": {
            "estimated_diameter_min": 0.1091204019,
            "estimated_diameter_max": 0.2440006365
        },
        "feet": {
            "estimated_diameter_min": 576.1559189633,
            "estimated_diameter_max": 1288.3238004408
        }
    },
    "is_potentially_hazardous_asteroid": false,
    "close_approach_data": [
        {
            "close_approach_date": "2011-10-13",
            "close_approach_date_full": "2011-Oct-13 01:17",
            "epoch_date_close_approach": 1318468620000,
            "relative_velocity": {
                "kilometers_per_second": "18.4144026714",
                "kilometers_per_hour": "66291.8496171206",
                "miles_per_hour": "41191.1773357048"
            },
            "miss_distance": {
                "astronomical": "0.3583414092",
                "lunar": "139.3948081788",
                "kilometers": "53607111.549118404",
                "miles": "33309914.5153618152"
            },
            "orbiting_body": "Earth"
        }
    ],
    "orbital_data": {
        "orbit_id": "10",
        "orbit_determination_date": "2017-04-06 08:53:31",
        "first_observation_date": "2011-05-08",
        "last_observation_date": "2011-06-04",
        "data_arc_in_days": 27,
        "observations_used": 30,
        "orbit_uncertainty": "7",
        "minimum_orbit_intersection": ".243868",
        "jupiter_tisserand_invariant": "3.443",
        "epoch_osculation": "2459000.5",
        "eccentricity": ".5239842765635601",
        "semi_major_axis": "2.174578016620546",
        "inclination": "17.4625273891007",
        "ascending_node_longitude": "45.60815554263957",
        "orbital_period": "1171.280510339621",
        "perihelion_distance": "1.035133327750608",
        "perihelion_argument": "278.6613575576165",
        "aphelion_distance": "3.314022705490484",
        "perihelion_time": "2459325.112753085854",
        "mean_anomaly": "260.2283483082776",
        "mean_motion": ".3073559209959154",
        "equinox": "J2000",
        "orbit_class": {
            "orbit_class_type": "AMO",
            "orbit_class_description": "Near-Earth asteroid orbits similar to that of 1221 Amor",
            "orbit_class_range": "1.017 AU < q (perihelion) < 1.3 AU"
        }
    },
    "is_sentry_object": false
}